[
    {
        "Altitude(m)": 557914.1988429839,
        "Argument of Periapsis(deg)": 0.006622991110713501,
        "Eccentricity": 0.0,
        "Inclination(deg)": 53.0,
        "Latitude(deg)": 44.450047335580855,
        "Longitude(deg)": 106.5491823044582,
        "Mean Anomaly(deg)": 61.0006928675776,
        "RAAN(deg)": 159.990143368528,
        "Satellite Name": "Starlink Shell 1 707",
        "Satellite Number": 707,
        "Semi-Major Axis(m)": 6931778.249405717,
        "Time(s)": 190
    },
    {
        "Altitude(m)": 557990.0894184401,
        "Argument of Periapsis(deg)": 0.0069715695902247375,
        "Eccentricity": 0.0,
        "Inclination(deg)": 53.0,
        "Latitude(deg)": 44.78763035934331,
        "Longitude(deg)": 107.24875689396093,
        "Mean Anomaly(deg)": 61.62752407113431,
        "RAAN(deg)": 159.98962459845055,
        "Satellite Name": "Starlink Shell 1 707",
        "Satellite Number": 707,
        "Semi-Major Axis(m)": 6931778.249405717,
        "Time(s)": 200
    },
    {
        "Altitude(m)": 558065.0780746234,
        "Argument of Periapsis(deg)": 0.007320148069735974,
        "Eccentricity": 0.0,
        "Inclination(deg)": 53.0,
        "Latitude(deg)": 45.12033256516416,
        "Longitude(deg)": 107.95694719624233,
        "Mean Anomaly(deg)": 62.25435527469101,
        "RAAN(deg)": 159.98910582837306,
        "Satellite Name": "Starlink Shell 1 707",
        "Satellite Number": 707,
        "Semi-Major Axis(m)": 6931778.249405717,
        "Time(s)": 210
    },
    {
        "Altitude(m)": 558139.1179452895,
        "Argument of Periapsis(deg)": 0.007668726549247212,
        "Eccentricity": 0.0,
        "Inclination(deg)": 53.0,
        "Latitude(deg)": 45.44804115918781,
        "Longitude(deg)": 108.67382537333717,
        "Mean Anomaly(deg)": 62.88118647824773,
        "RAAN(deg)": 159.98858705829562,
        "Satellite Name": "Starlink Shell 1 707",
        "Satellite Number": 707,
        "Semi-Major Axis(m)": 6931778.249405717,
        "Time(s)": 220
    },
    {
        "Altitude(m)": 558212.1628531987,
        "Argument of Periapsis(deg)": 0.00801730502875845,
        "Eccentricity": 0.0,
        "Inclination(deg)": 53.0,
        "Latitude(deg)": 45.770641795845606,
        "Longitude(deg)": 109.39945729286627,
        "Mean Anomaly(deg)": 63.50801768180446,
        "RAAN(deg)": 159.9880682882181,
        "Satellite Name": "Starlink Shell 1 707",
        "Satellite Number": 707,
        "Semi-Major Axis(m)": 6931778.249405717,
        "Time(s)": 230
    },
    {
        "Altitude(m)": 558284.1673331322,
        "Argument of Periapsis(deg)": 0.008365883508269684,
        "Eccentricity": 0.0,
        "Inclination(deg)": 53.0,
        "Latitude(deg)": 46.08801864829291,
        "Longitude(deg)": 110.13390253382936,
        "Mean Anomaly(deg)": 64.13484888536115,
        "RAAN(deg)": 159.98754951814067,
        "Satellite Name": "Starlink Shell 1 707",
        "Satellite Number": 707,
        "Semi-Major Axis(m)": 6931778.249405717,
        "Time(s)": 240
    },
    {
        "Altitude(m)": 558355.0866545524,
        "Argument of Periapsis(deg)": 0.008714461987780921,
        "Eccentricity": 0.0,
        "Inclination(deg)": 53.0,
        "Latitude(deg)": 46.400054487709305,
        "Longitude(deg)": 110.87721286520035,
        "Mean Anomaly(deg)": 64.76168008891787,
        "RAAN(deg)": 159.98703074806318,
        "Satellite Name": "Starlink Shell 1 707",
        "Satellite Number": 707,
        "Semi-Major Axis(m)": 6931778.249405717,
        "Time(s)": 250
    },
    {
        "Altitude(m)": 558424.8768438286,
        "Argument of Periapsis(deg)": 0.009063040467292158,
        "Eccentricity": 0.0,
        "Inclination(deg)": 53.0,
        "Latitude(deg)": 46.70663077185892,
        "Longitude(deg)": 111.62943222452017,
        "Mean Anomaly(deg)": 65.38851129247456,
        "RAAN(deg)": 159.9865119779857,
        "Satellite Name": "Starlink Shell 1 707",
        "Satellite Number": 707,
        "Semi-Major Axis(m)": 6931778.249405717,
        "Time(s)": 260
    },
    {
        "Altitude(m)": 558493.4947061299,
        "Argument of Periapsis(deg)": 0.009411618946803396,
        "Eccentricity": 0.0,
        "Inclination(deg)": 53.0,
        "Latitude(deg)": 47.00762774329085,
        "Longitude(deg)": 112.39059668530795,
        "Mean Anomaly(deg)": 66.01534249603131,
        "RAAN(deg)": 159.98599320790822,
        "Satellite Name": "Starlink Shell 1 707",
        "Satellite Number": 707,
        "Semi-Major Axis(m)": 6931778.249405717,
        "Time(s)": 270
    },
    {
        "Altitude(m)": 558560.8978468402,
        "Argument of Periapsis(deg)": 0.009760197426314633,
        "Eccentricity": 0.0,
        "Inclination(deg)": 53.0,
        "Latitude(deg)": 47.3029245375351,
        "Longitude(deg)": 113.16073290237388,
        "Mean Anomaly(deg)": 66.64217369958804,
        "RAAN(deg)": 159.9854744378308,
        "Satellite Name": "Starlink Shell 1 707",
        "Satellite Number": 707,
        "Semi-Major Axis(m)": 6931778.249405717,
        "Time(s)": 280
    },
    {
        "Altitude(m)": 558627.0446926164,
        "Argument of Periapsis(deg)": 0.01010877590582587,
        "Eccentricity": 0.0,
        "Inclination(deg)": 53.0,
        "Latitude(deg)": 47.59239930161719,
        "Longitude(deg)": 113.93985806302554,
        "Mean Anomaly(deg)": 67.26900490314472,
        "RAAN(deg)": 159.98495566775327,
        "Satellite Name": "Starlink Shell 1 707",
        "Satellite Number": 707,
        "Semi-Major Axis(m)": 6931778.249405717,
        "Time(s)": 290
    },
    {
        "Altitude(m)": 558691.8945119764,
        "Argument of Periapsis(deg)": 0.010457354385337106,
        "Eccentricity": 0.0,
        "Inclination(deg)": 53.0,
        "Latitude(deg)": 47.87592932318,
        "Longitude(deg)": 114.72797983381405,
        "Mean Anomaly(deg)": 67.89583610670145,
        "RAAN(deg)": 159.98443689767583,
        "Satellite Name": "Starlink Shell 1 707",
        "Satellite Number": 707,
        "Semi-Major Axis(m)": 6931778.249405717,
        "Time(s)": 300
    },
    {
        "Altitude(m)": 558755.4074354647,
        "Argument of Periapsis(deg)": 0.010805932864848343,
        "Eccentricity": 0.0,
        "Inclination(deg)": 53.0,
        "Latitude(deg)": 48.153391170457674,
        "Longitude(deg)": 115.52509479276168,
        "Mean Anomaly(deg)": 68.52266731025814,
        "RAAN(deg)": 159.98391812759834,
        "Satellite Name": "Starlink Shell 1 707",
        "Satellite Number": 707,
        "Semi-Major Axis(m)": 6931778.249405717,
        "Time(s)": 310
    },
    {
        "Altitude(m)": 558817.5444753948,
        "Argument of Periapsis(deg)": 0.01115451134435958,
        "Eccentricity": 0.0,
        "Inclination(deg)": 53.0,
        "Latitude(deg)": 48.424660843294745,
        "Longitude(deg)": 116.33118837593867,
        "Mean Anomaly(deg)": 69.14949851381489,
        "RAAN(deg)": 159.98339935752088,
        "Satellite Name": "Starlink Shell 1 707",
        "Satellite Number": 707,
        "Semi-Major Axis(m)": 6931778.249405717,
        "Time(s)": 320
    },
    {
        "Altitude(m)": 558878.2675451023,
        "Argument of Periapsis(deg)": 0.011503089823870818,
        "Eccentricity": 0.0,
        "Inclination(deg)": 53.0,
        "Latitude(deg)": 48.68961393534721,
        "Longitude(deg)": 117.14623482892209,
        "Mean Anomaly(deg)": 69.77632971737158,
        "RAAN(deg)": 159.9828805874434,
        "Satellite Name": "Starlink Shell 1 707",
        "Satellite Number": 707,
        "Semi-Major Axis(m)": 6931778.249405717,
        "Time(s)": 330
    },
    {
        "Altitude(m)": 558937.5394777587,
        "Argument of Periapsis(deg)": 0.011851668303382053,
        "Eccentricity": 0.0,
        "Inclination(deg)": 53.0,
        "Latitude(deg)": 48.94812580753823,
        "Longitude(deg)": 117.97019565396653,
        "Mean Anomaly(deg)": 70.40316092092826,
        "RAAN(deg)": 159.98236181736593,
        "Satellite Name": "Starlink Shell 1 707",
        "Satellite Number": 707,
        "Semi-Major Axis(m)": 6931778.249405717,
        "Time(s)": 340
    },
    {
        "Altitude(m)": 558995.3240447163,
        "Argument of Periapsis(deg)": 0.012200246782893292,
        "Eccentricity": 0.0,
        "Inclination(deg)": 53.0,
        "Latitude(deg)": 49.2000717727661,
        "Longitude(deg)": 118.80301958262665,
        "Mean Anomaly(deg)": 71.02999212448505,
        "RAAN(deg)": 159.98184304728844,
        "Satellite Name": "Starlink Shell 1 707",
        "Satellite Number": 707,
        "Semi-Major Axis(m)": 6931778.249405717,
        "Time(s)": 350
    },
    {
        "Altitude(m)": 559051.5859733681,
        "Argument of Periapsis(deg)": 0.012548825262404526,
        "Eccentricity": 0.0,
        "Inclination(deg)": 53.0,
        "Latitude(deg)": 49.44532729178364,
        "Longitude(deg)": 119.64464256521129,
        "Mean Anomaly(deg)": 71.65682332804172,
        "RAAN(deg)": 159.981324277211,
        "Satellite Name": "Starlink Shell 1 707",
        "Satellite Number": 707,
        "Semi-Major Axis(m)": 6931778.249405717,
        "Time(s)": 360
    },
    {
        "Altitude(m)": 559106.2909645258,
        "Argument of Periapsis(deg)": 0.012897403741915765,
        "Eccentricity": 0.0,
        "Inclination(deg)": 53.0,
        "Latitude(deg)": 49.683768180083966,
        "Longitude(deg)": 120.49498626870216,
        "Mean Anomaly(deg)": 72.28365453159844,
        "RAAN(deg)": 159.9808055071335,
        "Satellite Name": "Starlink Shell 1 707",
        "Satellite Number": 707,
        "Semi-Major Axis(m)": 6931778.249405717,
        "Time(s)": 370
    }
]